[Satellite]
VERSION=1.1
NAME=SOMP
NICKNAME=SOMP
TLE1=1 39134U 13015E   20157.73893381  .00001118  00000-0  58785-4 0  9995
TLE2=2 39134  64.8629 315.8860 0033754 245.4086 114.3523 15.21042444394270
STATUS=0
